[{"OBJECT_NAME":"STARLINK-34854","OBJECT_ID":"2025-189Q","EPOCH":"2026-03-09T15:45:56.909952","MEAN_MOTION":15.30209757,"ECCENTRICITY":0.00012288,"INCLINATION":53.1582,"RA_OF_ASC_NODE":206.7591,"ARG_OF_PERICENTER":92.5483,"MEAN_ANOMALY":267.5658,"EPHEMERIS_TYPE":0,"CLASSIFICATION_TYPE":"U","NORAD_CAT_ID":65337,"ELEMENT_SET_NO":999,"REV_AT_EPOCH":3104,"BSTAR":0.0010271719,"MEAN_MOTION_DOT":0.00030196,"MEAN_MOTION_DDOT":0},{"OBJECT_NAME":"COSMOS 2251 DEB","OBJECT_ID":"1993-036BTX","EPOCH":"2026-02-28T17:34:44.973408","MEAN_MOTION":15.25753352,"ECCENTRICITY":0.00216382,"INCLINATION":73.9681,"RA_OF_ASC_NODE":229.3494,"ARG_OF_PERICENTER":13.6287,"MEAN_ANOMALY":346.5492,"EPHEMERIS_TYPE":0,"CLASSIFICATION_TYPE":"U","NORAD_CAT_ID":38487,"ELEMENT_SET_NO":999,"REV_AT_EPOCH":67986,"BSTAR":0.0024802785,"MEAN_MOTION_DOT":0.00064261,"MEAN_MOTION_DDOT":0}]
